{
  "type": "FeatureCollection",
  "features": [
    {
      "type": "Feature",
      "properties": {
        "norad_id": 34434,
        "name": "COSMOS 2251 DEB",
        "group": "cosmos-2251-debris",
        "lat": -21.657690040959608,
        "lon": 179.21773344705514,
        "alt_km": 876.8611078894892,
        "timestamp": "2025-12-22T23:36:21.110925+00:00",
        "meta_object_name": "COSMOS 2251 DEB",
        "meta_object_id": "1993-036SB",
        "meta_epoch": "2025-12-22T11:17:32.807904",
        "meta_mean_motion": 13.89862264,
        "meta_eccentricity": 0.02737927,
        "meta_inclination": 74.0622,
        "meta_ra_of_asc_node": 353.5748,
        "meta_arg_of_pericenter": 128.5408,
        "meta_mean_anomaly": 24.8055,
        "meta_ephemeris_type": 0,
        "meta_classification_type": "U",
        "meta_norad_cat_id": 34434,
        "meta_element_set_no": 999,
        "meta_rev_at_epoch": 84101,
        "meta_bstar": 0.0015196688,
        "meta_mean_motion_dot": 2.507e-05,
        "meta_mean_motion_ddot": 0,
        "tle_line1": "1 34434U 93036SB  25356.47051861  .00002507  00000+0  15197-2 0  9990",
        "tle_line2": "2 34434  74.0622 353.5748 0273792 128.5408  24.8055 13.89862264841011"
      },
      "geometry": {
        "type": "Point",
        "coordinates": [
          179.21773344705514,
          -21.657690040959608
        ]
      }
    },
    {
      "type": "Feature",
      "properties": {
        "norad_id": 34446,
        "name": "COSMOS 2251 DEB",
        "group": "cosmos-2251-debris",
        "lat": 54.89951099245096,
        "lon": 62.097258648793805,
        "alt_km": 737.3991621970326,
        "timestamp": "2025-12-22T23:36:21.110935+00:00",
        "meta_object_name": "COSMOS 2251 DEB",
        "meta_object_id": "1993-036SP",
        "meta_epoch": "2025-12-21T22:29:12.990624",
        "meta_mean_motion": 14.49362668,
        "meta_eccentricity": 0.0050696,
        "meta_inclination": 74.0416,
        "meta_ra_of_asc_node": 40.034,
        "meta_arg_of_pericenter": 175.8746,
        "meta_mean_anomaly": 184.2843,
        "meta_ephemeris_type": 0,
        "meta_classification_type": "U",
        "meta_norad_cat_id": 34446,
        "meta_element_set_no": 999,
        "meta_rev_at_epoch": 88827,
        "meta_bstar": 0.00011387,
        "meta_mean_motion_dot": 4.14e-06,
        "meta_mean_motion_ddot": 0,
        "tle_line1": "1 34446U 93036SP  25355.93695591  .00000414  00000+0  11387-3 0  9990",
        "tle_line2": "2 34446  74.0416  40.0340 0050696 175.8746 184.2843 14.49362668888272"
      },
      "geometry": {
        "type": "Point",
        "coordinates": [
          62.097258648793805,
          54.89951099245096
        ]
      }
    },
    {
      "type": "Feature",
      "properties": {
        "norad_id": 34449,
        "name": "COSMOS 2251 DEB",
        "group": "cosmos-2251-debris",
        "lat": 73.68156355332341,
        "lon": 151.9274610384947,
        "alt_km": 558.112025118,
        "timestamp": "2025-12-22T23:36:21.110945+00:00",
        "meta_object_name": "COSMOS 2251 DEB",
        "meta_object_id": "1993-036SS",
        "meta_epoch": "2025-12-21T14:01:22.624032",
        "meta_mean_motion": 14.9530995,
        "meta_eccentricity": 0.0022739,
        "meta_inclination": 74.0321,
        "meta_ra_of_asc_node": 52.7148,
        "meta_arg_of_pericenter": 89.8054,
        "meta_mean_anomaly": 34.0385,
        "meta_ephemeris_type": 0,
        "meta_classification_type": "U",
        "meta_norad_cat_id": 34449,
        "meta_element_set_no": 999,
        "meta_rev_at_epoch": 88825,
        "meta_bstar": 0.0018531,
        "meta_mean_motion_dot": 0.00020555,
        "meta_mean_motion_ddot": 0,
        "tle_line1": "1 34449U 93036SS  25355.58428963  .00020555  00000+0  18531-2 0  9996",
        "tle_line2": "2 34449  74.0321  52.7148 0022739  89.8054  34.0385 14.95309950888256"
      },
      "geometry": {
        "type": "Point",
        "coordinates": [
          151.9274610384947,
          73.68156355332341
        ]
      }
    },
    {
      "type": "Feature",
      "properties": {
        "norad_id": 34451,
        "name": "COSMOS 2251 DEB",
        "group": "cosmos-2251-debris",
        "lat": 74.03144163590464,
        "lon": 158.6420581472844,
        "alt_km": 555.0935650340061,
        "timestamp": "2025-12-22T23:36:21.110955+00:00",
        "meta_object_name": "COSMOS 2251 DEB",
        "meta_object_id": "1993-036SU",
        "meta_epoch": "2025-12-22T05:33:05.101056",
        "meta_mean_motion": 14.96073953,
        "meta_eccentricity": 0.00238449,
        "meta_inclination": 74.0466,
        "meta_ra_of_asc_node": 68.7153,
        "meta_arg_of_pericenter": 82.7849,
        "meta_mean_anomaly": 277.6045,
        "meta_ephemeris_type": 0,
        "meta_classification_type": "U",
        "meta_norad_cat_id": 34451,
        "meta_element_set_no": 999,
        "meta_rev_at_epoch": 88777,
        "meta_bstar": 0.0029135722,
        "meta_mean_motion_dot": 0.00033055,
        "meta_mean_motion_ddot": 0,
        "tle_line1": "1 34451U 93036SU  25356.23130904  .00033055  00000+0  29136-2 0  9999",
        "tle_line2": "2 34451  74.0466  68.7153 0023844  82.7849 277.6045 14.96073953887770"
      },
      "geometry": {
        "type": "Point",
        "coordinates": [
          158.6420581472844,
          74.03144163590464
        ]
      }
    },
    {
      "type": "Feature",
      "properties": {
        "norad_id": 34452,
        "name": "COSMOS 2251 DEB",
        "group": "cosmos-2251-debris",
        "lat": 45.63722300031933,
        "lon": 178.63856287521892,
        "alt_km": 570.271674094779,
        "timestamp": "2025-12-22T23:36:21.110966+00:00",
        "meta_object_name": "COSMOS 2251 DEB",
        "meta_object_id": "1993-036SV",
        "meta_epoch": "2025-12-22T12:31:25.935744",
        "meta_mean_motion": 15.1193015,
        "meta_eccentricity": 0.00646594,
        "meta_inclination": 74.032,
        "meta_ra_of_asc_node": 162.5699,
        "meta_arg_of_pericenter": 236.7035,
        "meta_mean_anomaly": 179.1055,
        "meta_ephemeris_type": 0,
        "meta_classification_type": "U",
        "meta_norad_cat_id": 34452,
        "meta_element_set_no": 999,
        "meta_rev_at_epoch": 90810,
        "meta_bstar": 0.00098930567,
        "meta_mean_motion_dot": 0.00017837,
        "meta_mean_motion_ddot": 0,
        "tle_line1": "1 34452U 93036SV  25356.52182796  .00017837  00000+0  98931-3 0  9998",
        "tle_line2": "2 34452  74.0320 162.5699 0064659 236.7035 179.1055 15.11930150908102"
      },
      "geometry": {
        "type": "Point",
        "coordinates": [
          178.63856287521892,
          45.63722300031933
        ]
      }
    },
    {
      "type": "Feature",
      "properties": {
        "norad_id": 34454,
        "name": "COSMOS 2251 DEB",
        "group": "cosmos-2251-debris",
        "lat": -73.8657676968424,
        "lon": 177.64111724257646,
        "alt_km": 751.7437203157788,
        "timestamp": "2025-12-22T23:36:21.110976+00:00",
        "meta_object_name": "COSMOS 2251 DEB",
        "meta_object_id": "1993-036SX",
        "meta_epoch": "2025-12-22T03:59:06.492768",
        "meta_mean_motion": 14.38822755,
        "meta_eccentricity": 0.00358897,
        "meta_inclination": 74.0586,
        "meta_ra_of_asc_node": 260.2776,
        "meta_arg_of_pericenter": 320.9292,
        "meta_mean_anomaly": 38.9271,
        "meta_ephemeris_type": 0,
        "meta_classification_type": "U",
        "meta_norad_cat_id": 34454,
        "meta_element_set_no": 999,
        "meta_rev_at_epoch": 88203,
        "meta_bstar": 0.0002070495,
        "meta_mean_motion_dot": 6.15e-06,
        "meta_mean_motion_ddot": 0,
        "tle_line1": "1 34454U 93036SX  25356.16604737  .00000615  00000+0  20705-3 0  9994",
        "tle_line2": "2 34454  74.0586 260.2776 0035889 320.9292  38.9271 14.38822755882038"
      },
      "geometry": {
        "type": "Point",
        "coordinates": [
          177.64111724257646,
          -73.8657676968424
        ]
      }
    },
    {
      "type": "Feature",
      "properties": {
        "norad_id": 34459,
        "name": "COSMOS 2251 DEB",
        "group": "cosmos-2251-debris",
        "lat": -57.02786567982967,
        "lon": -149.76009720492493,
        "alt_km": 759.4566545079624,
        "timestamp": "2025-12-22T23:36:21.110987+00:00",
        "meta_object_name": "COSMOS 2251 DEB",
        "meta_object_id": "1993-036TC",
        "meta_epoch": "2025-12-22T01:35:59.550144",
        "meta_mean_motion": 14.00513623,
        "meta_eccentricity": 0.01921145,
        "meta_inclination": 74.0786,
        "meta_ra_of_asc_node": 237.9285,
        "meta_arg_of_pericenter": 305.6081,
        "meta_mean_anomaly": 52.7285,
        "meta_ephemeris_type": 0,
        "meta_classification_type": "U",
        "meta_norad_cat_id": 34459,
        "meta_element_set_no": 999,
        "meta_rev_at_epoch": 85842,
        "meta_bstar": 0.00037140359,
        "meta_mean_motion_dot": 6.22e-06,
        "meta_mean_motion_ddot": 0,
        "tle_line1": "1 34459U 93036TC  25356.06666146  .00000622  00000+0  37140-3 0  9999",
        "tle_line2": "2 34459  74.0786 237.9285 0192114 305.6081  52.7285 14.00513623858427"
      },
      "geometry": {
        "type": "Point",
        "coordinates": [
          -149.76009720492493,
          -57.02786567982967
        ]
      }
    }
  ]
}